[Satellite]
VERSION=1.1
NAME=HELLAS-SAT 3
NICKNAME=HELLAS-SAT 3
TLE1=1 42814U 17040A   17184.31957720  .00000137  00000-0  00000-0 0  9997
TLE2=2 42814   0.0050 152.6510 0024660  84.4330 188.2100  1.00724260    97
